STARLINK-31626          
1 59392U 24062U   26068.82291285 -.00000400  00000+0 -13984-5 0  9996
2 59392  53.1591 254.9130 0001126 104.6706 255.4419 15.30188131109698
STARLINK-36554          
1 67502U 26012K   26067.71268370  .00032833  00000+0  11969-2 0  9992
2 67502  42.9934 319.8184 0000695 339.2059  20.8765 15.27591469  7619
